{
  "type": "FeatureCollection",
  "features": [
    {
      "type": "Feature",
      "properties": {
        "norad_id": 43706,
        "name": "BEIDOU-3 M17 (C36)",
        "group": "beidou",
        "lat": -43.2261674005113,
        "lon": 145.32516419304073,
        "alt_km": 21516.662699317196,
        "timestamp": "2025-12-27T22:26:48.869090+00:00",
        "meta_object_name": "BEIDOU-3 M17 (C36)",
        "meta_object_id": "2018-093A",
        "meta_epoch": "2025-12-26T03:36:39.806208",
        "meta_mean_motion": 1.86228273,
        "meta_eccentricity": 0.00059945,
        "meta_inclination": 54.1735,
        "meta_ra_of_asc_node": 188.1665,
        "meta_arg_of_pericenter": 306.9478,
        "meta_mean_anomaly": 238.7851,
        "meta_ephemeris_type": 0,
        "meta_classification_type": "U",
        "meta_norad_cat_id": 43706,
        "meta_element_set_no": 999,
        "meta_rev_at_epoch": 4831,
        "meta_bstar": 0,
        "meta_mean_motion_dot": 1.19e-06,
        "meta_mean_motion_ddot": 0,
        "tle_line1": "1 43706U 18093A   25360.15046072  .00000119  00000+0  00000+0 0  9991",
        "tle_line2": "2 43706  54.1735 188.1665 0005994 306.9478 238.7851  1.86228273 48315"
      },
      "geometry": {
        "type": "Point",
        "coordinates": [
          145.32516419304073,
          -43.2261674005113
        ]
      }
    },
    {
      "type": "Feature",
      "properties": {
        "norad_id": 43707,
        "name": "BEIDOU-3 M18 (C37)",
        "group": "beidou",
        "lat": 27.827299614621737,
        "lon": -149.4768004608877,
        "alt_km": 21512.280170252594,
        "timestamp": "2025-12-27T22:26:48.869101+00:00",
        "meta_object_name": "BEIDOU-3 M18 (C37)",
        "meta_object_id": "2018-093B",
        "meta_epoch": "2025-12-26T19:24:55.355328",
        "meta_mean_motion": 1.86226544,
        "meta_eccentricity": 0.00060982,
        "meta_inclination": 54.1738,
        "meta_ra_of_asc_node": 188.1361,
        "meta_arg_of_pericenter": 353.9736,
        "meta_mean_anomaly": 6.054,
        "meta_ephemeris_type": 0,
        "meta_classification_type": "U",
        "meta_norad_cat_id": 43707,
        "meta_element_set_no": 999,
        "meta_rev_at_epoch": 4832,
        "meta_bstar": 0,
        "meta_mean_motion_dot": 1.25e-06,
        "meta_mean_motion_ddot": 0,
        "tle_line1": "1 43707U 18093B   25360.80897402  .00000125  00000+0  00000+0 0  9992",
        "tle_line2": "2 43707  54.1738 188.1361 0006098 353.9736   6.0540  1.86226544 48328"
      },
      "geometry": {
        "type": "Point",
        "coordinates": [
          -149.4768004608877,
          27.827299614621737
        ]
      }
    },
    {
      "type": "Feature",
      "properties": {
        "norad_id": 44231,
        "name": "BEIDOU-2 G8 (C01)",
        "group": "beidou",
        "lat": 1.0114316202458165,
        "lon": -142.1855523074989,
        "alt_km": 35800.63423022636,
        "timestamp": "2025-12-27T22:26:48.869112+00:00",
        "meta_object_name": "BEIDOU-2 G8 (C01)",
        "meta_object_id": "2019-027A",
        "meta_epoch": "2025-12-27T13:02:38.745600",
        "meta_mean_motion": 1.00273438,
        "meta_eccentricity": 0.0008371,
        "meta_inclination": 1.6971,
        "meta_ra_of_asc_node": 74.745,
        "meta_arg_of_pericenter": 258.6879,
        "meta_mean_anomaly": 103.0306,
        "meta_ephemeris_type": 0,
        "meta_classification_type": "U",
        "meta_norad_cat_id": 44231,
        "meta_element_set_no": 999,
        "meta_rev_at_epoch": 2436,
        "meta_bstar": 0,
        "meta_mean_motion_dot": -2.25e-06,
        "meta_mean_motion_ddot": 0,
        "tle_line1": "1 44231U 19027A   25361.54350400 -.00000225  00000+0  00000+0 0  9999",
        "tle_line2": "2 44231   1.6971  74.7450 0008371 258.6879 103.0306  1.00273438 24367"
      },
      "geometry": {
        "type": "Point",
        "coordinates": [
          -142.1855523074989,
          1.0114316202458165
        ]
      }
    },
    {
      "type": "Feature",
      "properties": {
        "norad_id": 44337,
        "name": "BEIDOU-3 IGSO-2 (C39)",
        "group": "beidou",
        "lat": 25.955396230356374,
        "lon": -179.86755039041128,
        "alt_km": 35942.294767743275,
        "timestamp": "2025-12-27T22:26:48.869123+00:00",
        "meta_object_name": "BEIDOU-3 IGSO-2 (C39)",
        "meta_object_id": "2019-035A",
        "meta_epoch": "2025-12-26T08:27:52.331328",
        "meta_mean_motion": 1.00266958,
        "meta_eccentricity": 0.0037903,
        "meta_inclination": 55.2292,
        "meta_ra_of_asc_node": 160.3818,
        "meta_arg_of_pericenter": 202.693,
        "meta_mean_anomaly": 338.2763,
        "meta_ephemeris_type": 0,
        "meta_classification_type": "U",
        "meta_norad_cat_id": 44337,
        "meta_element_set_no": 999,
        "meta_rev_at_epoch": 2393,
        "meta_bstar": 0,
        "meta_mean_motion_dot": -6e-07,
        "meta_mean_motion_ddot": 0,
        "tle_line1": "1 44337U 19035A   25360.35268902 -.00000060  00000+0  00000+0 0  9995",
        "tle_line2": "2 44337  55.2292 160.3818 0037903 202.6930 338.2763  1.00266958 23935"
      },
      "geometry": {
        "type": "Point",
        "coordinates": [
          -179.86755039041128,
          25.955396230356374
        ]
      }
    },
    {
      "type": "Feature",
      "properties": {
        "norad_id": 44542,
        "name": "BEIDOU-3 M24 (C46)",
        "group": "beidou",
        "lat": -10.04774127647386,
        "lon": -178.78905665595283,
        "alt_km": 21508.924556084832,
        "timestamp": "2025-12-27T22:26:48.869135+00:00",
        "meta_object_name": "BEIDOU-3 M24 (C46)",
        "meta_object_id": "2019-061A",
        "meta_epoch": "2025-12-25T19:20:31.720416",
        "meta_mean_motion": 1.86229328,
        "meta_eccentricity": 0.00095592,
        "meta_inclination": 54.4007,
        "meta_ra_of_asc_node": 188.5751,
        "meta_arg_of_pericenter": 26.2339,
        "meta_mean_anomaly": 333.8493,
        "meta_ephemeris_type": 0,
        "meta_classification_type": "U",
        "meta_norad_cat_id": 44542,
        "meta_element_set_no": 999,
        "meta_rev_at_epoch": 4256,
        "meta_bstar": 0,
        "meta_mean_motion_dot": 1.16e-06,
        "meta_mean_motion_ddot": 0,
        "tle_line1": "1 44542U 19061A   25359.80592269  .00000116  00000+0  00000+0 0  9997",
        "tle_line2": "2 44542  54.4007 188.5751 0009559  26.2339 333.8493  1.86229328 42560"
      },
      "geometry": {
        "type": "Point",
        "coordinates": [
          -178.78905665595283,
          -10.04774127647386
        ]
      }
    },
    {
      "type": "Feature",
      "properties": {
        "norad_id": 44543,
        "name": "BEIDOU-3 M23 (C45)",
        "group": "beidou",
        "lat": -53.24823338173933,
        "lon": 82.14268683161198,
        "alt_km": 21543.80656406092,
        "timestamp": "2025-12-27T22:26:48.869146+00:00",
        "meta_object_name": "BEIDOU-3 M23 (C45)",
        "meta_object_id": "2019-061B",
        "meta_epoch": "2025-12-26T11:37:48.857664",
        "meta_mean_motion": 1.86227559,
        "meta_eccentricity": 0.0005976,
        "meta_inclination": 54.3995,
        "meta_ra_of_asc_node": 188.5205,
        "meta_arg_of_pericenter": 25.6827,
        "meta_mean_anomaly": 342.0898,
        "meta_ephemeris_type": 0,
        "meta_classification_type": "U",
        "meta_norad_cat_id": 44543,
        "meta_element_set_no": 999,
        "meta_rev_at_epoch": 4258,
        "meta_bstar": 0,
        "meta_mean_motion_dot": 1.22e-06,
        "meta_mean_motion_ddot": 0,
        "tle_line1": "1 44543U 19061B   25360.48459326  .00000122  00000+0  00000+0 0  9997",
        "tle_line2": "2 44543  54.3995 188.5205 0005976  25.6827 342.0898  1.86227559 42581"
      },
      "geometry": {
        "type": "Point",
        "coordinates": [
          82.14268683161198,
          -53.24823338173933
        ]
      }
    },
    {
      "type": "Feature",
      "properties": {
        "norad_id": 44793,
        "name": "BEIDOU-3 M22 (C44)",
        "group": "beidou",
        "lat": 53.79778137748223,
        "lon": 44.41918959560966,
        "alt_km": 21516.17832999549,
        "timestamp": "2025-12-27T22:26:48.869161+00:00",
        "meta_object_name": "BEIDOU-3 M22 (C44)",
        "meta_object_id": "2019-078A",
        "meta_epoch": "2025-12-26T04:23:18.195072",
        "meta_mean_motion": 1.86232141,
        "meta_eccentricity": 0.0006121,
        "meta_inclination": 54.096,
        "meta_ra_of_asc_node": 305.9151,
        "meta_arg_of_pericenter": 23.7349,
        "meta_mean_anomaly": 336.3032,
        "meta_ephemeris_type": 0,
        "meta_classification_type": "U",
        "meta_norad_cat_id": 44793,
        "meta_element_set_no": 999,
        "meta_rev_at_epoch": 4142,
        "meta_bstar": 0,
        "meta_mean_motion_dot": -5.6e-07,
        "meta_mean_motion_ddot": 0,
        "tle_line1": "1 44793U 19078A   25360.18284948 -.00000056  00000+0  00000+0 0  9992",
        "tle_line2": "2 44793  54.0960 305.9151 0006121  23.7349 336.3032  1.86232141 41424"
      },
      "geometry": {
        "type": "Point",
        "coordinates": [
          44.41918959560966,
          53.79778137748223
        ]
      }
    }
  ]
}